[{"OBJECT_NAME":"SENTINEL-3A","OBJECT_ID":"2016-011A","EPOCH":"2026-03-09T21:54:08.177760","MEAN_MOTION":14.26741759,"ECCENTRICITY":0.00012494,"INCLINATION":98.6228,"RA_OF_ASC_NODE":137.6961,"ARG_OF_PERICENTER":99.0654,"MEAN_ANOMALY":261.0668,"EPHEMERIS_TYPE":0,"CLASSIFICATION_TYPE":"U","NORAD_CAT_ID":41335,"ELEMENT_SET_NO":999,"REV_AT_EPOCH":52390,"BSTAR":8.2696554e-5,"MEAN_MOTION_DOT":1.57e-6,"MEAN_MOTION_DDOT":0},{"OBJECT_NAME":"COSMOS 886 DEB","OBJECT_ID":"1976-126BM","EPOCH":"2026-03-09T12:21:52.549920","MEAN_MOTION":14.36592925,"ECCENTRICITY":0.00638031,"INCLINATION":65.5748,"RA_OF_ASC_NODE":210.1246,"ARG_OF_PERICENTER":330.3117,"MEAN_ANOMALY":100.8151,"EPHEMERIS_TYPE":0,"CLASSIFICATION_TYPE":"U","NORAD_CAT_ID":13943,"ELEMENT_SET_NO":999,"REV_AT_EPOCH":12899,"BSTAR":0.0019968866,"MEAN_MOTION_DOT":5.931e-5,"MEAN_MOTION_DDOT":0}]
